{
  "norad_id": 61546,
  "name": "STARLINK-32445",
  "history": [
    {
      "epoch": "2026-03-28T19:49:05.832480",
      "apogee_km": 475.87918492677454,
      "perigee_km": 474.5415485877311,
      "latitude_deg": -18.470450570052293,
      "longitude_deg": 53.873147200094536,
      "semi_major_axis_km": 6853.3473667572525,
      "eccentricity": 9.759e-05,
      "inclination_deg": 53.1591,
      "raan_deg": 285.2809,
      "arg_perigee_deg": 85.1132,
      "mean_anomaly_deg": 274.998,
      "mean_motion_rev_day": 15.30201575
    }
  ]
}