{"fetched_at":"2026-03-29T16:36:15Z","count":15609,"tles":[{"name":"STARLINK-32445","line1":"1 61546U 24184Q   26087.82576195  .00001360  00000+0  58039-4 0  9995","line2":"2 61546  53.1591 285.2809 0000975  85.1132 274.9980 15.30201575 81437","category":"Starlink"}]}